0 FENGYUN 1C DEB
1 29748U 99025AN  13293.39502250  .00002920  00000-0  25084-1 0  7710
2 29748 100.3434 261.3704 1051662 154.6374 213.4160 11.28063678273855
